NORAD_CAT_ID,OBJECT_NAME,OBJECT_TYPE,EPOCH,MEAN_MOTION,ECCENTRICITY,INCLINATION,RA_OF_ASC_NODE,ARG_OF_PERICENTER,MEAN_ANOMALY,BSTAR,MEAN_MOTION_DOT,MEAN_MOTION_DDOT,TLE_LINE0,TLE_LINE1,TLE_LINE2,SEMIMAJOR_AXIS,PERIOD,APOGEE,PERIGEE,DECAYED
53143.0,STARLINK-4102,PAYLOAD,2022-12-14 15:32:05,15.0884539,0.0002176,53.2188,76.0301,37.2871,322.8272,4.1849e-05,3.78e-06,0.0,0 STARLINK-4102,1 53143U 22083M   22348.64729158  .00000378  00000-0  41849-4 0  9990,2 53143  53.2188  76.0301 0002176  37.2871 322.8272 15.08845390 23550,6917.864000000001,95.437,541.234,538.224,0.0
53143.0,STARLINK-4102,PAYLOAD,2022-12-14 23:29:02,15.08835143,0.0002504,53.22,74.5445,40.7506,319.3673,-2.1284e-05,-6.27e-06,0.0,0 STARLINK-4102,1 53143U 22083M   22348.97849842 -.00000627  00000-0 -21284-4 0  9999,2 53143  53.2200  74.5445 0002504  40.7506 319.3673 15.08835143 23603,6917.895,95.438,541.492,538.028,0.0
53143.0,STARLINK-4102,PAYLOAD,2022-12-15 12:12:07,15.0883808,0.0002121,53.2186,72.1643,35.1962,324.9170000000001,1.6781e-05,-2.1e-07,0.0,0 STARLINK-4102,1 53143U 22083M   22349.50841756 -.00000021  00000-0  16781-4 0  9998,2 53143  53.2186  72.1643 0002121  35.1962 324.9170 15.08838080 23055,6917.886,95.438,541.219,538.284,0.0
53143.0,STARLINK-4102,PAYLOAD,2022-12-15 16:58:16,15.08845585,0.0002154,53.2197,71.2725,35.125,324.9884,6.7334e-05,7.84e-06,0.0,0 STARLINK-4102,1 53143U 22083M   22349.70713305  .00000784  00000-0  67334-4 0  9993,2 53143  53.2197  71.2725 0002154  35.1250 324.9884 15.08845585 23717,6917.863,95.437,541.2180000000002,538.238,0.0
53143.0,STARLINK-4102,PAYLOAD,2022-12-16 10:27:32,15.08829098,0.000207,53.2188,68.0018,37.0646,323.0489,-3.4292e-05,-8.34e-06,0.0,0 STARLINK-4102,1 53143U 22083M   22350.43578980 -.00000834  00000-0 -34292-4 0  9998,2 53143  53.2188  68.0018 0002070  37.0646 323.0489 15.08829098 23827,6917.9140000000025,95.438,541.211,538.347,0.0
53143.0,STARLINK-4102,PAYLOAD,2022-12-16 12:02:55,15.08832844,0.0002147,53.2188,67.7048,34.6152,325.498,-8.0474e-06,-4.16e-06,0.0,0 STARLINK-4102,1 53143U 22083M   22350.50202703 -.00000416  00000-0 -80474-5 0  9993,2 53143  53.2188  67.7048 0002147  34.6152 325.4980 15.08832844 23203,6917.901999999999,95.438,541.253,538.2819999999998,0.0
53143.0,STARLINK-4102,PAYLOAD,2022-12-16 16:49:04,15.08836433,0.0002144,53.2186,66.8125,34.8115,325.3018,2.4115e-05,9.6e-07,0.0,0 STARLINK-4102,1 53143U 22083M   22350.70074452  .00000096  00000-0  24115-4 0  9994,2 53143  53.2186  66.8125 0002144  34.8115 325.3018 15.08836433 23866,6917.891,95.438,541.239,538.273,0.0
53143.0,STARLINK-4102,PAYLOAD,2022-12-17 03:56:47,15.08825313,0.000212,53.2189,64.7314,37.72,322.394,-9.5755e-06,-4.41e-06,0.0,0 STARLINK-4102,1 53143U 22083M   22351.16443637 -.00000441  00000-0 -95755-5 0  9995,2 53143  53.2189  64.7314 0002120  37.7200 322.3940 15.08825313 23931,6917.925,95.438,541.257,538.3240000000002,0.0
53143.0,STARLINK-4102,PAYLOAD,2022-12-17 11:53:42,15.08833842,0.0002104,53.2196,63.2446,38.0737,322.0403,0.00010416,1.3699999999999998e-05,0.0,0 STARLINK-4102,1 53143U 22083M   22351.49563049  .00001370  00000-0  10416-3 0  9990,2 53143  53.2196  63.2446 0002104  38.0737 322.0403 15.08833842 23353,6917.899,95.438,541.22,538.309,0.0
53143.0,STARLINK-4102,PAYLOAD,2022-12-17 15:04:28,15.08834615,0.0002096,53.219,62.6496,38.6154,321.4988,0.00013184,1.810000000000001e-05,0.0,0 STARLINK-4102,1 53143U 22083M   22351.62811093  .00001810  00000-0  13184-3 0  9994,2 53143  53.2190  62.6496 0002096  38.6154 321.4988 15.08834615 23376,6917.897,95.438,541.212,538.312,0.0
53143.0,STARLINK-4102,PAYLOAD,2022-12-18 11:44:29,15.08840128,0.000204,53.2183,58.7841,38.0665,322.0471,0.00017886,2.56e-05,0.0,0 STARLINK-4102,1 53143U 22083M   22352.48923378  .00002560  00000-0  17886-3 0  9995,2 53143  53.2183  58.7841 0002040  38.0665 322.0471 15.08840128 23503,6917.88,95.438,541.156,538.3340000000002,0.0
53143.0,STARLINK-4102,PAYLOAD,2022-12-18 16:30:39,15.08845445,0.0002101,53.2175,57.8916,40.3752,319.7396,0.00024877,3.674e-05,0.0,0 STARLINK-4102,1 53143U 22083M   22352.68795287  .00003674  00000-0  24877-3 0  9998,2 53143  53.2175  57.8916 0002101  40.3752 319.7396 15.08845445 24167,6917.864000000001,95.437,541.182,538.275,0.0
53143.0,STARLINK-4102,PAYLOAD,2022-12-18 21:16:48,15.08831902,0.000151,53.2183,57.0,34.4467,325.6623,-7.1352e-07,-2.99e-06,0.0,0 STARLINK-4102,1 53143U 22083M   22352.88667739 -.00000299  00000-0 -71352-6 0  9995,2 53143  53.2183  57.0000 0001510  34.4467 325.6623 15.08831902 23567,6917.905,95.438,540.815,538.726,0.0
53143.0,STARLINK-4102,PAYLOAD,2022-12-19 11:35:16,15.08843144,0.0001638,53.2183,54.3231,32.6355,327.4738,9.5587e-05,1.234e-05,0.0,0 STARLINK-4102,1 53143U 22083M   22353.48283329  .00001234  00000-0  95587-4 0  9993,2 53143  53.2183  54.3231 0001638  32.6355 327.4738 15.08843144 24288,6917.871,95.437,540.869,538.6030000000002,0.0
53143.0,STARLINK-4102,PAYLOAD,2022-12-19 14:46:02,15.088568900000002,0.0001958,53.2172,53.7284,44.224,315.8908,0.00030963,4.645e-05,0.0,0 STARLINK-4102,1 53143U 22083M   22353.61530780  .00004645  00000-0  30963-3 0  9999,2 53143  53.2172  53.7284 0001958  44.2240 315.8908 15.08856890 24309,6917.829000000002,95.436,541.048,538.339,0.0
53143.0,STARLINK-4102,PAYLOAD,2022-12-20 09:50:40,15.08849506,0.0001821,53.217,50.1603,57.1515,302.9652,0.00022571,3.307e-05,0.0,0 STARLINK-4102,1 53143U 22083M   22354.41019180  .00003307  00000-0  22571-3 0  9994,2 53143  53.2170  50.1603 0001821  57.1515 302.9652 15.08849506 24422,6917.851,95.437,540.976,538.457,0.0
53143.0,STARLINK-4102,PAYLOAD,2022-12-20 13:01:26,15.08851542,0.0001836,53.2167,49.5656,46.951,313.1636,0.00030294,4.538e-05,0.0,0 STARLINK-4102,1 53143U 22083M   22354.54266940  .00004538  00000-0  30294-3 0  9994,2 53143  53.2167  49.5656 0001836  46.9510 313.1636 15.08851542 23816,6917.845,95.437,540.98,538.44,0.0
53143.0,STARLINK-4102,PAYLOAD,2022-12-21 03:19:55,15.08826424,0.0001728,53.2163,46.8896,52.8542,307.2607,0.00023022,3.376e-05,0.0,0 STARLINK-4102,1 53143U 22083M   22355.13883747  .00003376  00000-0  23022-3 0  9990,2 53143  53.2163  46.8896 0001728  52.8542 307.2607 15.08826424 24532,6917.922,95.438,540.982,538.591,0.0
53143.0,STARLINK-4102,PAYLOAD,2022-12-21 11:16:51,15.08829362,0.0001694,53.2162,45.4032,61.1431,298.9731,0.00076063,0.00011835,0.0,0 STARLINK-4102,1 53143U 22083M   22355.47004120  .00011835  00000-0  76063-3 0  9999,2 53143  53.2162  45.4032 0001694  61.1431 298.9731 15.08829362 23953,6917.913000000001,95.438,540.95,538.606,0.0
53143.0,STARLINK-4102,PAYLOAD,2022-12-22 09:32:15,15.08851103,0.000174,53.2163,41.24,62.3117,297.8052,0.00080197,0.00012502,0.0,0 STARLINK-4102,1 53143U 22083M   22356.39740083  .00012502  00000-0  80197-3 0  9991,2 53143  53.2163  41.2400 0001740  62.3117 297.8052 15.08851103 24721,6917.846,95.437,540.915,538.508,0.0
53143.0,STARLINK-4102,PAYLOAD,2022-12-23 09:23:01,15.08863243,0.0001776999999999,53.2162,36.7789,63.2462,296.8712,0.00056622,8.741e-05,0.0,0 STARLINK-4102,1 53143U 22083M   22357.39099066  .00008741  00000-0  56622-3 0  9996,2 53143  53.2162  36.7789 0001777  63.2462 296.8712 15.08863243 24878,6917.809,95.436,540.904,538.445,0.0
53143.0,STARLINK-4102,PAYLOAD,2022-12-24 02:52:15,15.08849855,0.0001737,53.2176,33.5079,68.735,291.3828,4.7335e-05,4.66e-06,0.0,0 STARLINK-4102,1 53143U 22083M   22358.11962859  .00000466  00000-0  47335-4 0  9994,2 53143  53.2176  33.5079 0001737  68.7350 291.3828 15.08849855 24985,6917.85,95.437,540.9169999999998,538.514,0.0
53143.0,STARLINK-4102,PAYLOAD,2022-12-24 09:13:48,15.08847255,0.0001748,53.217,32.3194,62.3702,297.7468,3.1146e-05,2.08e-06,0.0,0 STARLINK-4102,1 53143U 22083M   22358.38458909  .00000208  00000-0  31146-4 0  9996,2 53143  53.2170  32.3194 0001748  62.3702 297.7468 15.08847255 24394,6917.858,95.437,540.932,538.514,0.0
53143.0,STARLINK-4102,PAYLOAD,2022-12-25 02:43:03,15.08841399,0.0001714,53.2173,29.0482,61.9385,298.178,-6.1046e-05,-1.26e-05,0.0,0 STARLINK-4102,1 53143U 22083M   22359.11322999 -.00001260  00000-0 -61046-4 0  9990,2 53143  53.2173  29.0482 0001714  61.9385 298.1780 15.08841399 25133,6917.876,95.437,540.927,538.555,0.0
53143.0,STARLINK-4102,PAYLOAD,2022-12-25 09:04:35,15.08841255,0.0001682,53.218,27.8581,64.8917,295.2249,-3.2905e-05,-8.12e-06,0.0,0 STARLINK-4102,1 53143U 22083M   22359.37819266 -.00000812  00000-0 -32905-4 0  9990,2 53143  53.2180  27.8581 0001682  64.8917 295.2249 15.08841255 24547,6917.877,95.437,540.905,538.578,0.0
53143.0,STARLINK-4102,PAYLOAD,2022-12-25 18:36:54,15.08837863,0.0001613,53.2182,26.0737,59.1549,300.9601,-6.2588e-05,-1.284e-05,0.0,0 STARLINK-4102,1 53143U 22083M   22359.77563520 -.00001284  00000-0 -62588-4 0  9997,2 53143  53.2182  26.0737 0001613  59.1549 300.9601 15.08837863 24608,6917.887,95.438,540.868,538.636,0.0
53143.0,STARLINK-4102,PAYLOAD,2022-12-26 02:33:50,15.08831754,0.0001551999999999,53.2176,24.5855,60.1236,299.9911,1.4237e-05,-6.1e-07,0.0,0 STARLINK-4102,1 53143U 22083M   22360.10683750 -.00000061  00000-0  14237-4 0  9993,2 53143  53.2176  24.5855 0001552  60.1236 299.9911 15.08831754 25281,6917.906,95.438,540.844,538.697,0.0
53143.0,STARLINK-4102,PAYLOAD,2022-12-26 12:06:09,15.08831773,0.0001592,53.2183,22.8017,61.3163,298.7989,9.4697e-06,-1.37e-06,0.0,0 STARLINK-4102,1 53143U 22083M   22360.50428013 -.00000137  00000-0  94697-5 0  9999,2 53143  53.2183  22.8017 0001592  61.3163 298.7989 15.08831773 24716,6917.906,95.438,540.872,538.669,0.0
53143.0,STARLINK-4102,PAYLOAD,2022-12-27 00:49:14,15.08847109,0.0001535,53.2184,20.4227,54.8489,305.2647,4.496e-05,4.28e-06,0.0,0 STARLINK-4102,1 53143U 22083M   22361.03419231  .00000428  00000-0  44960-4 0  9999,2 53143  53.2184  20.4227 0001535  54.8489 305.2647 15.08847109 25423,6917.859,95.437,540.786,538.6619999999998,0.0
